     2.10           G: GLONASS NAV DATA                     RINEX VERSION / TYPE
teqc  2015Jun23                         20220326 01:25:41UTCPGM / RUN BY / DATE
Linux 2.4.21-27.ELsmp|Opteron|gcc -static|Linux x86_64|=+   COMMENT
  2022     3     2   -1.071020960808D-08                    CORR TO SYSTEM TIME
                                                            END OF HEADER
 7 22  3  3  2 45  0.0 3.224238753319D-05 0.000000000000D+00 9.000000000000D+03
   -6.134073242188D+03 1.583242416382D-01-5.587935447693D-09 0.000000000000D+00
    2.473355126953D+04 4.009342193604D-02 9.313225746155D-10 5.000000000000D+00
    4.687597656250D+01-3.575703620911D+00-9.313225746155D-10 0.000000000000D+00
 6 22  3  3  2 45  0.0-3.553554415703D-05-1.818989403546D-12 9.000000000000D+03
   -1.144557958984D+04 5.731010437012D-01-5.587935447693D-09 0.000000000000D+00
    1.632201708984D+04-2.102939605713D+00 1.862645149231D-09-4.000000000000D+00
   -1.590592382812D+04-2.573387145996D+00 9.313225746155D-10 0.000000000000D+00
 8 22  3  3  2 45  0.0-6.380211561918D-05 0.000000000000D+00 9.000000000000D+03
    2.567139160156D+03-3.901538848877D-01-1.862645149231D-09 0.000000000000D+00
    2.011609570312D+04 2.081088066101D+00-9.313225746155D-10 6.000000000000D+00
    1.551522412109D+04-2.645962715149D+00-1.862645149231D-09 0.000000000000D+00
20 22  3  3  2 45  0.0-6.596092134714D-05-9.094947017729D-13 9.000000000000D+03
   -2.390790136719D+04-4.942016601562D-01-4.656612873077D-09 0.000000000000D+00
    7.778513671875D+03 3.806619644165D-01 4.656612873077D-09 2.000000000000D+00
   -4.144775390625D+03 3.560512542725D+00-9.313225746155D-10 0.000000000000D+00
21 22  3  3  2 45  0.0-2.822503447533D-04-2.728484105319D-12 9.000000000000D+03
   -9.831412109375D+03-2.631389617920D+00-4.656612873077D-09 0.000000000000D+00
    1.214657128906D+04 8.577384948730D-01 1.862645149231D-09 4.000000000000D+00
   -2.016488281250D+04 1.797684669495D+00 1.862645149231D-09 0.000000000000D+00
 8 22  3  3  3 15  0.0-6.380211561918D-05-0.000000000000D+00 1.080000000000D+04
    2.234510253906D+03-7.585525512695D-03-3.725290298462D-09 0.000000000000D+00
    2.327852978516D+04 1.397928237915D+00 0.000000000000D+00 6.000000000000D+00
    1.021553466797D+04-3.204591751099D+00-1.862645149231D-09 0.000000000000D+00
 7 22  3  3  3 15  0.0 3.224238753319D-05 0.000000000000D+00 1.080000000000D+04
   -5.726482421875D+03 2.533206939697D-01-5.587935447693D-09 0.000000000000D+00
    2.400672607422D+04-8.479299545288D-01 1.862645149231D-09 5.000000000000D+00
   -6.307745117188D+03-3.438942909241D+00-0.000000000000D+00 0.000000000000D+00
20 22  3  3  3 15  0.0-6.596278399229D-05-9.094947017729D-13 1.080000000000D+04
   -2.399097314453D+04 3.908958435059D-01-2.793967723846D-09 0.000000000000D+00
    8.266839355469D+03 1.203317642212D-01 4.656612873077D-09 2.000000000000D+00
    2.341833984375D+03 3.599874496460D+00-1.862645149231D-09 0.000000000000D+00
 6 22  3  3  3 15  0.0-3.553926944733D-05-1.818989403546D-12 1.080000000000D+04
   -1.062486914062D+04 3.078556060791D-01-3.725290298462D-09 0.000000000000D+00
    1.196513134766D+04-2.701847076416D+00 2.793967723846D-09-4.000000000000D+00
   -1.986299951172D+04-1.794873237610D+00 1.862645149231D-09 0.000000000000D+00
21 22  3  3  3 15  0.0-2.822559326887D-04-2.728484105319D-12 1.080000000000D+04
   -1.400458642578D+04-1.974502563477D+00-4.656612873077D-09 0.000000000000D+00
    1.387989550781D+04 1.029627799988D+00 3.725290298462D-09 4.000000000000D+00
   -1.619170507812D+04 2.588282585144D+00 9.313225746155D-10 0.000000000000D+00
10 22  3  3  3 15  0.0-8.024834096432D-05-0.000000000000D+00 1.086000000000D+04
   -3.600031250000D+03-2.533799171448D+00-9.313225746155D-10 0.000000000000D+00
    1.084770849609D+04-1.827088356018D+00 0.000000000000D+00-7.000000000000D+00
    2.278320703125D+04 4.763078689575D-01-2.793967723846D-09 0.000000000000D+00
 1 22  3  3  3 15  0.0 7.154420018196D-06 0.000000000000D+00 1.233000000000D+04
    9.217147460938D+03-1.968078613281D-01-0.000000000000D+00 0.000000000000D+00
    1.094516796875D+04 2.884048461914D+00-1.862645149231D-09 1.000000000000D+00
    2.112442578125D+04-1.407518386841D+00-1.862645149231D-09 0.000000000000D+00
 8 22  3  3  3 45  0.0-6.380211561918D-05-0.000000000000D+00 1.260000000000D+04
    2.418265136719D+03 1.736478805542D-01-4.656612873077D-09 0.000000000000D+00
    2.505160205078D+04 5.539093017578D-01 9.313225746155D-10 6.000000000000D+00
    4.127085937500D+03-3.516532897949D+00-9.313225746155D-10 0.000000000000D+00
 7 22  3  3  3 45  0.0 3.224238753319D-05-0.000000000000D+00 1.260000000000D+04
   -5.368283691406D+03 1.062326431274D-01-4.656612873077D-09 0.000000000000D+00
    2.171574316406D+04-1.678313255310D+00 2.793967723846D-09 5.000000000000D+00
   -1.217255908203D+04-3.034959793091D+00 0.000000000000D+00 0.000000000000D+00
20 22  3  3  3 45  0.0-6.596464663744D-05-9.094947017729D-13 1.260000000000D+04
   -2.257468505859D+04 1.153385162354D+00-1.862645149231D-09 0.000000000000D+00
    8.076038574219D+03-3.646907806396D-01 4.656612873077D-09 2.000000000000D+00
    8.646848632812D+03 3.360096931458D+00-1.862645149231D-09 0.000000000000D+00
 6 22  3  3  3 45  0.0-3.554299473763D-05-1.818989403546D-12 1.260000000000D+04
   -1.042400048828D+04-1.010160446167D-01-1.862645149231D-09 0.000000000000D+00
    6.747976562500D+03-3.047692298889D+00 2.793967723846D-09-4.000000000000D+00
   -2.228425097656D+04-8.780202865601D-01 1.862645149231D-09 0.000000000000D+00
21 22  3  3  3 45  0.0-2.822615206242D-04-2.728484105319D-12 1.260000000000D+04
   -1.686038378906D+04-1.186146736145D+00-3.725290298462D-09 0.000000000000D+00
    1.570050439453D+04 9.484615325928D-01 4.656612873077D-09 4.000000000000D+00
   -1.096744189453D+04 3.178775787354D+00 0.000000000000D+00 0.000000000000D+00
 1 22  3  3  3 45  0.0 7.154420018196D-06 0.000000000000D+00 1.266000000000D+04
    9.236600585938D+03 1.983842849731D-01-1.862645149231D-09 0.000000000000D+00
    1.576775341797D+04 2.429962158203D+00-9.313225746155D-10 1.000000000000D+00
    1.780770458984D+04-2.253815650940D+00-1.862645149231D-09 0.000000000000D+00
22 22  3  3  3 45  0.0-1.681391149759D-04-1.818989403546D-12 1.398000000000D+04
   -2.798800292969D+03-2.548082351685D+00-3.725290298462D-09 0.000000000000D+00
    1.287058984375D+04 1.575264930725D+00 2.793967723846D-09-3.000000000000D+00
   -2.183220898438D+04 1.265362739563D+00 1.862645149231D-09 0.000000000000D+00
 8 22  3  3  4 15  0.0-6.380304694176D-05-0.000000000000D+00 1.440000000000D+04
    2.714497070312D+03 1.144828796387D-01-4.656612873077D-09 0.000000000000D+00
    2.524143798828D+04-3.417768478394D-01 2.793967723846D-09 6.000000000000D+00
   -2.280515136719D+03-3.556734085083D+00-0.000000000000D+00 0.000000000000D+00
 1 22  3  3  4 15  0.0 7.155351340771D-06 0.000000000000D+00 1.440000000000D+04
    9.833354980469D+03 4.312944412231D-01-2.793967723846D-09 0.000000000000D+00
    1.955429980469D+04 1.745823860168D+00 0.000000000000D+00 1.000000000000D+00
    1.311541601562D+04-2.926020622253D+00-1.862645149231D-09 0.000000000000D+00
 7 22  3  3  4 15  0.0 3.224145621061D-05-0.000000000000D+00 1.440000000000D+04
   -5.466918457031D+03-2.443485260010D-01-3.725290298462D-09 0.000000000000D+00
    1.806588037109D+04-2.341094017029D+00 3.725290298462D-09 5.000000000000D+00
   -1.709159667969D+04-2.394932746887D+00 9.313225746155D-10 0.000000000000D+00
21 22  3  3  4 15  0.0-2.822661772370D-04-2.728484105319D-12 1.440000000000D+04
   -1.826574658203D+04-3.827934265137D-01-2.793967723846D-09 0.000000000000D+00
    1.713291406250D+04 5.998153686523D-01 5.587935447693D-09 4.000000000000D+00
   -4.895879882812D+03 3.523630142212D+00-9.313225746155D-10 0.000000000000D+00
22 22  3  3  4 15  0.0-1.681437715888D-04-2.728484105319D-12 1.440000000000D+04
   -6.870552734375D+03-1.948248863220D+00-2.793967723846D-09 0.000000000000D+00
    1.584398974609D+04 1.685237884521D+00 3.725290298462D-09-3.000000000000D+00
   -1.873862500000D+04 2.149861335754D+00 9.313225746155D-10 0.000000000000D+00
 8 22  3  3  4 45  0.0-6.380397826433D-05-0.000000000000D+00 1.620000000000D+04
    2.688516113281D+03-1.796684265137D-01-3.725290298462D-09 0.000000000000D+00
    2.386080273438D+04-1.171834945679D+00 3.725290298462D-09 6.000000000000D+00
   -8.511235839844D+03-3.321129798889D+00 0.000000000000D+00 0.000000000000D+00
 1 22  3  3  4 45  0.0 7.155351340771D-06 0.000000000000D+00 1.620000000000D+04
    1.065346240234D+04 4.392576217651D-01-3.725290298462D-09 0.000000000000D+00
    2.196977734375D+04 9.241132736206D-01 1.862645149231D-09 1.000000000000D+00
    7.409977050781D+03-3.372234344482D+00-9.313225746155D-10 0.000000000000D+00
 7 22  3  3  4 45  0.0 3.224145621061D-05-0.000000000000D+00 1.620000000000D+04
   -6.324519531250D+03-7.217197418213D-01-1.862645149231D-09 0.000000000000D+00
    1.343985009766D+04-2.751796722412D+00 3.725290298462D-09 5.000000000000D+00
   -2.068231054688D+04-1.568722724915D+00 1.862645149231D-09 0.000000000000D+00
21 22  3  3  4 45  0.0-2.822717651725D-04-2.728484105319D-12 1.620000000000D+04
   -1.829884667969D+04 3.205671310425D-01-1.862645149231D-09 0.000000000000D+00
    1.771788720703D+04 1.601028442383D-02 5.587935447693D-09 4.000000000000D+00
    1.553876953125D+03 3.596275329590D+00-9.313225746155D-10 0.000000000000D+00
22 22  3  3  4 45  0.0-1.681484282017D-04-2.728484105319D-12 1.620000000000D+04
   -9.745286132812D+03-1.236886024475D+00-2.793967723846D-09 0.000000000000D+00
    1.877041552734D+04 1.518389701843D+00 5.587935447693D-09-3.000000000000D+00
   -1.419214453125D+04 2.869053840637D+00 0.000000000000D+00 0.000000000000D+00
 8 22  3  3  5 15  0.0-6.380490958691D-05-0.000000000000D+00 1.800000000000D+04
    1.955566894531D+03-6.594734191895D-01-2.793967723846D-09 0.000000000000D+00
    2.112669482422D+04-1.829741477966D+00 4.656612873077D-09 6.000000000000D+00
   -1.408120605469D+04-2.827254295349D+00 9.313225746155D-10 0.000000000000D+00
